{
  "type": "FeatureCollection",
  "features": [
    {
      "type": "Feature",
      "properties": {
        "norad_id": 66645,
        "name": "SHENZHOU-22",
        "group": "last-30-days",
        "lat": -30.434435680671495,
        "lon": -152.40796312223085,
        "alt_km": 396.750024108298,
        "timestamp": "2025-12-17T19:34:06.800918+00:00",
        "meta_object_name": "SHENZHOU-22",
        "meta_object_id": "2025-272A",
        "meta_epoch": "2025-12-17T07:49:42.593088",
        "meta_mean_motion": 15.59373916,
        "meta_eccentricity": 0.0007759,
        "meta_inclination": 41.4681,
        "meta_ra_of_asc_node": 348.8601,
        "meta_arg_of_pericenter": 70.4303,
        "meta_mean_anomaly": 289.7373,
        "meta_ephemeris_type": 0,
        "meta_classification_type": "U",
        "meta_norad_cat_id": 66645,
        "meta_element_set_no": 999,
        "meta_rev_at_epoch": 26357,
        "meta_bstar": 0.00025118398,
        "meta_mean_motion_dot": 0.00020139,
        "meta_mean_motion_ddot": 0,
        "tle_line1": "1 66645U 25272A   25351.32618742  .00020139  00000+0  25118-3 0  9998",
        "tle_line2": "2 66645  41.4681 348.8601 0007759  70.4303 289.7373 15.59373916263579"
      },
      "geometry": {
        "type": "Point",
        "coordinates": [
          -152.40796312223085,
          -30.434435680671495
        ]
      }
    },
    {
      "type": "Feature",
      "properties": {
        "norad_id": 66647,
        "name": "COSMOS 2597 (RODNIK-S 22)",
        "group": "last-30-days",
        "lat": 67.64674182264206,
        "lon": 84.61218299228354,
        "alt_km": 1497.5321702607398,
        "timestamp": "2025-12-17T19:34:06.800928+00:00",
        "meta_object_name": "COSMOS 2597 (RODNIK-S 22)",
        "meta_object_id": "2025-273A",
        "meta_epoch": "2025-12-17T07:22:18.016608",
        "meta_mean_motion": 12.41952017,
        "meta_eccentricity": 0.00076684,
        "meta_inclination": 82.499,
        "meta_ra_of_asc_node": 283.6128,
        "meta_arg_of_pericenter": 275.9944,
        "meta_mean_anomaly": 84.0261,
        "meta_ephemeris_type": 0,
        "meta_classification_type": "U",
        "meta_norad_cat_id": 66647,
        "meta_element_set_no": 999,
        "meta_rev_at_epoch": 270,
        "meta_bstar": -0.0001004671,
        "meta_mean_motion_dot": -4e-08,
        "meta_mean_motion_ddot": 0,
        "tle_line1": "1 66647U 25273A   25351.30715297 -.00000004  00000+0 -10047-3 0  9998",
        "tle_line2": "2 66647  82.4990 283.6128 0007668 275.9944  84.0261 12.41952017  2702"
      },
      "geometry": {
        "type": "Point",
        "coordinates": [
          84.61218299228354,
          67.64674182264206
        ]
      }
    },
    {
      "type": "Feature",
      "properties": {
        "norad_id": 66648,
        "name": "COSMOS 2598 (RODNIK-S 23)",
        "group": "last-30-days",
        "lat": 9.681418386271728,
        "lon": 102.00472116246586,
        "alt_km": 1490.6361911393114,
        "timestamp": "2025-12-17T19:34:06.800938+00:00",
        "meta_object_name": "COSMOS 2598 (RODNIK-S 23)",
        "meta_object_id": "2025-273B",
        "meta_epoch": "2025-12-17T07:04:02.230464",
        "meta_mean_motion": 12.43233444,
        "meta_eccentricity": 0.00080247,
        "meta_inclination": 82.5029,
        "meta_ra_of_asc_node": 283.6158,
        "meta_arg_of_pericenter": 225.9717,
        "meta_mean_anomaly": 134.0702,
        "meta_ephemeris_type": 0,
        "meta_classification_type": "U",
        "meta_norad_cat_id": 66648,
        "meta_element_set_no": 999,
        "meta_rev_at_epoch": 270,
        "meta_bstar": -0.00011464567,
        "meta_mean_motion_dot": -6e-08,
        "meta_mean_motion_ddot": 0,
        "tle_line1": "1 66648U 25273B   25351.29447026 -.00000006  00000+0 -11465-3 0  9996",
        "tle_line2": "2 66648  82.5029 283.6158 0008024 225.9717 134.0702 12.43233444  2704"
      },
      "geometry": {
        "type": "Point",
        "coordinates": [
          102.00472116246586,
          9.681418386271728
        ]
      }
    },
    {
      "type": "Feature",
      "properties": {
        "norad_id": 66649,
        "name": "COSMOS 2599 (RODNIK-S 24)",
        "group": "last-30-days",
        "lat": 75.73662634123308,
        "lon": -45.49145847156935,
        "alt_km": 1499.4535458282671,
        "timestamp": "2025-12-17T19:34:06.800951+00:00",
        "meta_object_name": "COSMOS 2599 (RODNIK-S 24)",
        "meta_object_id": "2025-273C",
        "meta_epoch": "2025-12-17T07:32:33.519840",
        "meta_mean_motion": 12.41150963,
        "meta_eccentricity": 0.00062855,
        "meta_inclination": 82.5047,
        "meta_ra_of_asc_node": 283.6325,
        "meta_arg_of_pericenter": 267.4159,
        "meta_mean_anomaly": 92.6201,
        "meta_ephemeris_type": 0,
        "meta_classification_type": "U",
        "meta_norad_cat_id": 66649,
        "meta_element_set_no": 999,
        "meta_rev_at_epoch": 270,
        "meta_bstar": -0.00011850796,
        "meta_mean_motion_dot": -6e-08,
        "meta_mean_motion_ddot": 0,
        "tle_line1": "1 66649U 25273C   25351.31427685 -.00000006  00000+0 -11851-3 0  9998",
        "tle_line2": "2 66649  82.5047 283.6325 0006285 267.4159  92.6201 12.41150963  2704"
      },
      "geometry": {
        "type": "Point",
        "coordinates": [
          -45.49145847156935,
          75.73662634123308
        ]
      }
    },
    {
      "type": "Feature",
      "properties": {
        "norad_id": 66650,
        "name": "BEE-1000",
        "group": "last-30-days",
        "lat": 8.708056502162854,
        "lon": 100.10334043383149,
        "alt_km": 591.0363024668213,
        "timestamp": "2025-12-17T19:34:06.800964+00:00",
        "meta_object_name": "BEE-1000",
        "meta_object_id": "2025-274A",
        "meta_epoch": "2025-12-17T07:32:00.988512",
        "meta_mean_motion": 14.91677428,
        "meta_eccentricity": 0.00105858,
        "meta_inclination": 97.7397,
        "meta_ra_of_asc_node": 278.4175,
        "meta_arg_of_pericenter": 234.4842,
        "meta_mean_anomaly": 125.539,
        "meta_ephemeris_type": 0,
        "meta_classification_type": "U",
        "meta_norad_cat_id": 66650,
        "meta_element_set_no": 999,
        "meta_rev_at_epoch": 308,
        "meta_bstar": 0.00012929605,
        "meta_mean_motion_dot": 1.245e-05,
        "meta_mean_motion_ddot": 0,
        "tle_line1": "1 66650U 25274A   25351.31390033  .00001245  00000+0  12930-3 0  9990",
        "tle_line2": "2 66650  97.7397 278.4175 0010585 234.4842 125.5390 14.91677428  3082"
      },
      "geometry": {
        "type": "Point",
        "coordinates": [
          100.10334043383149,
          8.708056502162854
        ]
      }
    },
    {
      "type": "Feature",
      "properties": {
        "norad_id": 66651,
        "name": "2025-274B",
        "group": "last-30-days",
        "lat": 1.092344273937061,
        "lon": 99.0601370843229,
        "alt_km": 590.5540656348594,
        "timestamp": "2025-12-17T19:34:06.800975+00:00",
        "meta_object_name": "2025-274B",
        "meta_object_id": "2025-274B",
        "meta_epoch": "2025-12-17T07:30:01.927584",
        "meta_mean_motion": 14.91832453,
        "meta_eccentricity": 0.00108432,
        "meta_inclination": 97.7392,
        "meta_ra_of_asc_node": 278.4179,
        "meta_arg_of_pericenter": 233.404,
        "meta_mean_anomaly": 126.6182,
        "meta_ephemeris_type": 0,
        "meta_classification_type": "U",
        "meta_norad_cat_id": 66651,
        "meta_element_set_no": 999,
        "meta_rev_at_epoch": 308,
        "meta_bstar": 0.00024060193,
        "meta_mean_motion_dot": 2.375e-05,
        "meta_mean_motion_ddot": 0,
        "tle_line1": "1 66651U 25274B   25351.31252231  .00002375  00000+0  24060-3 0  9990",
        "tle_line2": "2 66651  97.7392 278.4179 0010843 233.4040 126.6182 14.91832453  3080"
      },
      "geometry": {
        "type": "Point",
        "coordinates": [
          99.0601370843229,
          1.092344273937061
        ]
      }
    },
    {
      "type": "Feature",
      "properties": {
        "norad_id": 66652,
        "name": "2025-274C",
        "group": "last-30-days",
        "lat": -8.318262768003283,
        "lon": 97.77746534028176,
        "alt_km": 591.3428389539913,
        "timestamp": "2025-12-17T19:34:06.800985+00:00",
        "meta_object_name": "2025-274C",
        "meta_object_id": "2025-274C",
        "meta_epoch": "2025-12-17T07:27:31.886208",
        "meta_mean_motion": 14.91928378,
        "meta_eccentricity": 0.00104375,
        "meta_inclination": 97.7398,
        "meta_ra_of_asc_node": 278.4214,
        "meta_arg_of_pericenter": 240.4439,
        "meta_mean_anomaly": 119.574,
        "meta_ephemeris_type": 0,
        "meta_classification_type": "U",
        "meta_norad_cat_id": 66652,
        "meta_element_set_no": 999,
        "meta_rev_at_epoch": 308,
        "meta_bstar": 0.00019448666,
        "meta_mean_motion_dot": 1.913e-05,
        "meta_mean_motion_ddot": 0,
        "tle_line1": "1 66652U 25274C   25351.31078572  .00001913  00000+0  19449-3 0  9997",
        "tle_line2": "2 66652  97.7398 278.4214 0010437 240.4439 119.5740 14.91928378  3089"
      },
      "geometry": {
        "type": "Point",
        "coordinates": [
          97.77746534028176,
          -8.318262768003283
        ]
      }
    }
  ]
}